     2.10           GLONASS NAV DATA                        RINEX VERSION / TYPE
TPP                 Reference Data Shop 2014-10-17 12:05:50 PGM / RUN BY / DATE 
                                                            COMMENT             
                                                            COMMENT             
                                                            COMMENT             
  2014    10    17     .221654772758E-06                    CORR TO SYSTEM TIME 
    16                                                      LEAP SECONDS        
                                                            END OF HEADER       
01 14 10 17  4 45  0.0 -.159722752869E-03  .000000000000E+00  .162000000000E+05
     .110336977539E+05  .137800216675E+00 -.931322574615E-09  .000000000000E+00
    -.226937880859E+05 -.519739151001E+00  .000000000000E+00  .100000000000E+01
     .379450341797E+04 -.351011848450E+01  .000000000000E+00  .000000000000E+00
02 14 10 17  5 15  0.0  .986000522971E-04  .181898940355E-11  .180000000000E+05
     .139503955078E+04  .633937835693E+00  .000000000000E+00  .000000000000E+00
    -.210179111328E+05 -.186601161957E+01 -.931322574615E-09 -.400000000000E+01
     .144011381836E+05 -.279452228546E+01 -.931322574615E-09  .000000000000E+00
03 14 10 17  6 15  0.0  .265650451183E-04  .909494701773E-12  .216000000000E+05
    -.642953662109E+04  .237102508545E+00 -.931322574615E-09  .000000000000E+00
    -.167620004883E+05 -.246776199341E+01  .000000000000E+00  .500000000000E+01
     .181486303711E+05 -.220181179047E+01 -.186264514923E-08  .000000000000E+00
04 14 10 17  6 45  0.0  .934042036533E-04  .909494701773E-12  .234000000000E+05
    -.108287006836E+05 -.151100158691E-01  .000000000000E+00  .000000000000E+00
    -.384662792969E+04 -.311584281921E+01 -.931322574615E-09  .600000000000E+01
     .227878642578E+05 -.534146308899E+00 -.186264514923E-08  .000000000000E+00
05 14 10 17  6 45  0.0 -.545848160982E-05  .000000000000E+00  .234000000000E+05
    -.899081103516E+04  .796709060669E-01  .000000000000E+00  .000000000000E+00
     .148922197266E+05 -.255423641205E+01  .000000000000E+00  .100000000000E+01
     .186468051758E+05  .207803916931E+01 -.186264514923E-08  .000000000000E+00
06 14 10 17  6 45  0.0  .556958839297E-04  .000000000000E+00  .242100000000E+05
    -.145039501953E+04  .141468048096E+00  .931322574615E-09  .000000000000E+00
     .252987011719E+05 -.419177055359E+00  .000000000000E+00 -.400000000000E+01
     .305180078125E+04  .352587509155E+01 -.931322574615E-09  .000000000000E+00
07 14 10 17  2 45  0.0 -.106466934085E-03 -.909494701773E-12  .900000000000E+04
     .228106123047E+05 -.828221321106E+00 -.931322574615E-09  .000000000000E+00
    -.948914208984E+04  .292882919312E+00  .000000000000E+00  .500000000000E+01
    -.627716064453E+04 -.343558311462E+01  .931322574615E-09  .000000000000E+00
08 14 10 17  3 45  0.0 -.257613137364E-04  .000000000000E+00  .126000000000E+05
     .185946699219E+05 -.252722740173E+00 -.931322574615E-09  .000000000000E+00
    -.174199926758E+05  .204019546509E-01  .000000000000E+00  .600000000000E+01
    -.136550390625E+04 -.356196880341E+01  .000000000000E+00  .000000000000E+00
09 14 10 17  5 15  0.0 -.111758708954E-04  .909494701773E-12  .180000000000E+05
     .112726367188E+05 -.512224197388E+00  .931322574615E-09  .100000000000E+01
     .214489545898E+05 -.100183486938E+01  .931322574615E-09 -.200000000000E+01
    -.813428125000E+04 -.334972572327E+01  .931322574615E-09  .000000000000E+00
10 14 10 17  6 45  0.0 -.207033008337E-05  .000000000000E+00  .234000000000E+05
     .174917485352E+05 -.106752204895E+01  .186264514923E-08  .000000000000E+00
     .155974960938E+05 -.883989334106E+00  .000000000000E+00 -.700000000000E+01
    -.998052978516E+04 -.326428222656E+01  .931322574615E-09  .000000000000E+00
11 14 10 17  6 45  0.0 -.695418566465E-05  .909494701773E-12  .234000000000E+05
     .225660522461E+05  .103590583801E+01  .279396772385E-08  .000000000000E+00
     .902624511719E+04  .360178947449E+00  .000000000000E+00  .000000000000E+00
     .786883105469E+04 -.337857151031E+01  .000000000000E+00  .000000000000E+00
12 14 10 17  6 45  0.0 -.195344910026E-04  .000000000000E+00  .234000000000E+05
     .138037294922E+05  .253441143036E+01  .186264514923E-08  .000000000000E+00
    -.322664013672E+04  .142564678192E+01  .000000000000E+00 -.100000000000E+01
     .211401225586E+05 -.145112991333E+01 -.931322574615E-09  .000000000000E+00
13 14 10 17  6 45  0.0 -.456713140011E-03 -.909494701773E-12  .234000000000E+05
    -.323601562500E+04  .251054954529E+01  .000000000000E+00  .000000000000E+00
    -.132697968750E+05  .155935382843E+01  .000000000000E+00 -.200000000000E+01
     .215341948242E+05  .133606815338E+01 -.186264514923E-08  .000000000000E+00
15 14 10 17  1 15  0.0  .306442379951E-04  .909494701773E-12  .360000000000E+04
    -.715429003906E+04 -.123080253601E+00  .000000000000E+00  .000000000000E+00
     .237055156250E+05  .889203071594E+00  .279396772385E-08  .000000000000E+00
     .633598095703E+04 -.346418476105E+01  .000000000000E+00  .000000000000E+00
16 14 10 17  3 15  0.0 -.376924872398E-04  .000000000000E+00  .108000000000E+05
     .289432666016E+04  .182567596436E+00  .931322574615E-09  .000000000000E+00
     .252925410156E+05 -.361690521240E-01  .279396772385E-08 -.100000000000E+01
    -.135815917969E+03 -.359122085571E+01  .931322574615E-09  .000000000000E+00
17 14 10 17  2 15  0.0  .134193338454E-03  .909494701773E-12  .720000000000E+04
    -.160719970703E+05 -.217698001862E+01  .000000000000E+00  .000000000000E+00
    -.101149218750E+04 -.161239624023E+01  .000000000000E+00  .400000000000E+01
     .197870024414E+05 -.185591793060E+01 -.186264514923E-08  .000000000000E+00
18 14 10 17  3 45  0.0  .220155343413E-04  .181898940355E-11  .126000000000E+05
    -.164194731445E+05 -.252836322784E+01  .000000000000E+00  .000000000000E+00
     .459066015625E+04 -.611731529236E+00  .000000000000E+00 -.300000000000E+01
     .190045249023E+05 -.203151130676E+01 -.186264514923E-08  .000000000000E+00
19 14 10 17  5 15  0.0 -.108006410301E-03 -.909494701773E-12  .180000000000E+05
    -.127082597656E+05 -.264805221558E+01  .000000000000E+00  .000000000000E+00
     .104230000000E+05  .378461837769E+00  .000000000000E+00  .300000000000E+01
     .194972651367E+05 -.192840003967E+01 -.186264514923E-08  .000000000000E+00
20 14 10 17  6 45  0.0 -.137355178595E-03 -.909494701773E-12  .234000000000E+05
    -.899875634766E+04 -.220404338837E+01  .000000000000E+00  .000000000000E+00
     .147761083984E+05  .132495784760E+01  .000000000000E+00  .200000000000E+01
     .187633569336E+05 -.209588718414E+01 -.186264514923E-08  .000000000000E+00
21 14 10 17  6 45  0.0  .393949449062E-04  .000000000000E+00  .234000000000E+05
     .716387597656E+04 -.275974369049E+01  .186264514923E-08  .000000000000E+00
     .839797460938E+04  .151900672913E+01  .000000000000E+00  .400000000000E+01
     .229915029297E+05  .301828384399E+00 -.186264514923E-08  .000000000000E+00
22 14 10 17  6 45  0.0  .140120275319E-03  .000000000000E+00  .234000000000E+05
     .201134619141E+05 -.189833545685E+01  .279396772385E-08  .000000000000E+00
    -.308152343750E+04  .909796714783E+00  .000000000000E+00 -.300000000000E+01
     .152903159180E+05  .269176006317E+01 -.931322574615E-09  .000000000000E+00
23 14 10 17  6 45  0.0 -.672900117934E-03 -.363797880709E-11  .235500000000E+05
     .216545590820E+05  .169235229492E+00  .186264514923E-08  .000000000000E+00
    -.133124306641E+05 -.309442520142E+00  .931322574615E-09  .300000000000E+01
    -.219594189453E+04  .356492424011E+01  .931322574615E-09  .000000000000E+00
24 14 10 17  0 45  0.0 -.116860494018E-03  .000000000000E+00  .180000000000E+04
    -.143526547852E+05 -.141203975677E+01  .000000000000E+00  .000000000000E+00
    -.665223583984E+04 -.235482311249E+01  .000000000000E+00  .200000000000E+01
     .199810112305E+05 -.179570579529E+01 -.186264514923E-08  .000000000000E+00
11 14 10 17  7 15  0.0 -.695232301950E-05  .909494701773E-12  .252000000000E+05
     .237787348633E+05  .283500671387E+00  .279396772385E-08  .000000000000E+00
     .920979736328E+04 -.124226570129E+00  .000000000000E+00  .000000000000E+00
     .156275976563E+04 -.358287334442E+01  .000000000000E+00  .000000000000E+00
22 14 10 17  7 15  0.0  .140121206641E-03  .000000000000E+00  .252000000000E+05
     .163822915039E+05 -.219906806946E+01  .279396772385E-08  .000000000000E+00
    -.891396972656E+03  .152444934845E+01  .000000000000E+00 -.300000000000E+01
     .194779028320E+05  .193095588684E+01 -.931322574615E-09  .000000000000E+00
20 14 10 17  7 15  0.0 -.137358903885E-03 -.909494701773E-12  .252000000000E+05
    -.123428110352E+05 -.149499320984E+01  .000000000000E+00  .000000000000E+00
     .171573554688E+05  .127645874023E+01  .000000000000E+00  .200000000000E+01
     .143154033203E+05 -.281419181824E+01 -.186264514923E-08  .000000000000E+00
21 14 10 17  7 15  0.0  .393958762288E-04  .000000000000E+00  .252000000000E+05
     .241911816406E+04 -.246978282928E+01  .931322574615E-09  .000000000000E+00
     .114824282227E+05  .187804412842E+01  .000000000000E+00  .400000000000E+01
     .226385405273E+05 -.691560745239E+00 -.186264514923E-08  .000000000000E+00
23 14 10 17  7 15  0.0 -.672906637192E-03 -.363797880709E-11  .252000000000E+05
     .212671083984E+05 -.575273513794E+00  .186264514923E-08  .000000000000E+00
    -.134413442383E+05  .199644088745E+00  .931322574615E-09  .300000000000E+01
     .422290478516E+04  .352082729340E+01  .000000000000E+00  .000000000000E+00
